NORAD_CAT_ID,OBJECT_NAME,OBJECT_TYPE,EPOCH,MEAN_MOTION,ECCENTRICITY,INCLINATION,RA_OF_ASC_NODE,ARG_OF_PERICENTER,MEAN_ANOMALY,BSTAR,MEAN_MOTION_DOT,MEAN_MOTION_DDOT,TLE_LINE0,TLE_LINE1,TLE_LINE2,SEMIMAJOR_AXIS,PERIOD,APOGEE,PERIGEE,DECAYED
53163.0,STARLINK-4104,PAYLOAD,2022-08-10 04:00:00,15.73090541,0.0002271,53.2179,290.1406,32.3272,117.8042,0.00056874,0.00079588,0.0,0 STARLINK-4104,1 53163U 22083AH  22222.16667824  .00079588  00000-0  56874-3 0  9993,2 53163  53.2179 290.1406 0002271  32.3272 117.8042 15.73090541  4361,6728.206999999999,91.54,351.6,348.5440000000001,0.0
53163.0,STARLINK-4104,PAYLOAD,2022-08-10 14:00:01,15.731111,0.0002618999999999,53.2179,288.0816,29.4811,321.6799,0.00052417,0.00073314,0.0,0 STARLINK-4104,1 53163U 22083AH  22222.58334491  .00073314  00000-0  52417-3 0  9990,2 53163  53.2179 288.0816 0002619  29.4811 321.6799 15.73111100  4420,6728.149,91.538,351.776,348.25199999999984,0.0
53163.0,STARLINK-4104,PAYLOAD,2022-08-10 22:00:00,15.73160591,0.0002458,53.2176,286.4307,30.023000000000003,49.9937,0.00022338,0.00030794,0.0,0 STARLINK-4104,1 53163U 22083AH  22222.91667824  .00030794  00000-0  22338-3 0  9990,2 53163  53.2176 286.4307 0002458  30.0230  49.9937 15.73160591  1304,6728.0080000000025,91.535,351.526,348.219,0.0
53163.0,STARLINK-4104,PAYLOAD,2022-08-11 06:00:02,15.73200049,0.0002473,53.2174,284.7814,32.7918,136.1773,0.00018714,0.00025725,0.0,0 STARLINK-4104,1 53163U 22083AH  22223.25002315  .00025725  00000-0  18714-3 0  9997,2 53163  53.2174 284.7814 0002473  32.7918 136.1773 15.73200049  4533,6727.895,91.533,351.4240000000001,348.096,0.0
53163.0,STARLINK-4104,PAYLOAD,2022-08-11 14:00:01,15.73187381,0.0002748,53.217,283.134,29.8341,228.0049,0.00054935,0.00077155,0.0,0 STARLINK-4104,1 53163U 22083AH  22223.58334491  .00077155  00000-0  54935-3 0  9995,2 53163  53.2170 283.1340 0002748  29.8341 228.0049 15.73187381  1300,6727.931,91.534,351.645,347.94699999999995,0.0
53163.0,STARLINK-4104,PAYLOAD,2022-08-12 14:00:01,15.73252419,0.0002661,53.2167,278.1851,23.4457,141.3879,-3.5066e-05,-5.553e-05,0.0,0 STARLINK-4104,1 53163U 22083AH  22224.58334491 -.00005553  00000-0 -35066-4 0  9996,2 53163  53.2167 278.1851 0002661  23.4457 141.3879 15.73252419  4743,6727.746,91.53,351.401,347.82,0.0
53163.0,STARLINK-4104,PAYLOAD,2022-08-12 20:00:01,15.73261574,0.0002485999999999,53.2165,276.9464,19.8935,121.7431,-0.0007503999999999,-0.00104927,0.0,0 STARLINK-4104,1 53163U 22083AH  22224.83335648 -.00104927  00000-0 -75040-3 0  9999,2 53163  53.2165 276.9464 0002486  19.8935 121.7431 15.73261574  4784,6727.72,91.53,351.25699999999995,347.912,0.0
53163.0,STARLINK-4104,PAYLOAD,2022-08-12 22:00:01,15.73225088,0.0002399,53.2166,276.5336,19.0101,234.878,-0.00035165,-0.00049743,0.0,0 STARLINK-4104,1 53163U 22083AH  22224.91668981 -.00049743  00000-0 -35165-3 0  9995,2 53163  53.2166 276.5336 0002399  19.0101 234.8780 15.73225088  1307,6727.824000000001,91.532,351.30300000000005,348.075,0.0
53163.0,STARLINK-4104,PAYLOAD,2022-08-13 04:00:00,15.73211205,0.0002276999999999,53.2164,275.2963,17.5021,213.0155,-0.0002631999999999,-0.00037418,0.0,0 STARLINK-4104,1 53163U 22083AH  22225.16667824 -.00037418  00000-0 -26320-3 0  9997,2 53163  53.2164 275.2963 0002277  17.5021 213.0155 15.73211205  4838,6727.863,91.533,351.26,348.196,0.0
53163.0,STARLINK-4104,PAYLOAD,2022-08-13 14:00:01,15.73123129,0.0002598,53.2157,273.2366,12.7363,58.9257,0.0006007,0.00084263,0.0,0 STARLINK-4104,1 53163U 22083AH  22225.58334491  .00084263  00000-0  60070-3 0  9992,2 53163  53.2157 273.2366 0002598  12.7363  58.9257 15.73123129  1302,6728.114000000001,91.538,351.727,348.231,0.0
53163.0,STARLINK-4104,PAYLOAD,2022-08-13 22:00:00,15.73160933,0.0002383,53.2158,271.5851,13.0327,147.5069,0.00037736,0.00052587,0.0,0 STARLINK-4104,1 53163U 22083AH  22225.91667824  .00052587  00000-0  37736-3 0  9995,2 53163  53.2158 271.5851 0002383  13.0327 147.5069 15.73160933  1309,6728.007,91.535,351.475,348.26800000000014,0.0
53163.0,STARLINK-4104,PAYLOAD,2022-08-14 04:00:00,15.73198625,0.0002299,53.2161,270.3452,17.8759,119.3341,0.00027019,0.00037468,0.0,0 STARLINK-4104,1 53163U 22083AH  22226.16667824  .00037468  00000-0  27019-3 0  9997,2 53163  53.2161 270.3452 0002299  17.8759 119.3341 15.73198625  4991,6727.899,91.533,351.311,348.217,0.0
53163.0,STARLINK-4104,PAYLOAD,2022-08-14 14:00:01,15.73242131,0.0002774999999999,53.2158,268.2879,16.2233,322.1893,-0.00017553,-0.00025233,0.0,0 STARLINK-4104,1 53163U 22083AH  22226.58334491 -.00025233  00000-0 -17553-3 0  9995,2 53163  53.2158 268.2879 0002775  16.2233 322.1893 15.73242131  1305,6727.775,91.531,351.50699999999995,347.773,0.0
53163.0,STARLINK-4104,PAYLOAD,2022-08-14 20:00:01,15.73211443,0.000264,53.2159,267.04900000000004,19.8333,295.3188,5.026e-05,6.441e-05,0.0,0 STARLINK-4104,1 53163U 22083AH  22226.83334491  .00006441  00000-0  50260-4 0  9994,2 53163  53.2159 267.0490 0002640  19.8333 295.3188 15.73211443  5093,6727.863,91.533,351.504,347.951,0.0
53163.0,STARLINK-4104,PAYLOAD,2022-08-14 22:00:00,15.73200832,0.0002573,53.2159,266.6362,20.0419,47.3506,0.00020808,0.00028685,0.0,0 STARLINK-4104,1 53163U 22083AH  22226.91667824  .00028685  00000-0  20808-3 0  9990,2 53163  53.2159 266.6362 0002573  20.0419  47.3506 15.73200832  1309,6727.893,91.533,351.48900000000015,348.027,0.0
53163.0,STARLINK-4104,PAYLOAD,2022-08-15 14:00:01,15.73190255,0.0002765,53.2152,263.339,14.0074,231.2435,-0.00023379,-0.00033296,0.0,0 STARLINK-4104,1 53163U 22083AH  22227.58334491 -.00033296  00000-0 -23379-3 0  9997,2 53163  53.2152 263.3390 0002765  14.0074 231.2435 15.73190255  5216,6727.9230000000025,91.534,351.648,347.92800000000005,0.0
53163.0,STARLINK-4104,PAYLOAD,2022-08-15 22:00:00,15.73132254,0.0002499,53.2153,261.6874,13.8043,320.3701,0.00051175,0.00071612,0.0,0 STARLINK-4104,1 53163U 22083AH  22227.91667824  .00071612  00000-0  51175-3 0  9990,2 53163  53.2153 261.6874 0002499  13.8043 320.3701 15.73132254  1309,6728.0880000000025,91.537,351.635,348.272,0.0
53163.0,STARLINK-4104,PAYLOAD,2022-08-16 06:00:02,15.73204048,0.0002606,53.2157,260.0387,15.489,47.6278,1.3649e-05,1.294e-05,0.0,0 STARLINK-4104,1 53163U 22083AH  22228.25002315  .00001294  00000-0  13649-4 0  9990,2 53163  53.2157 260.0387 0002606  15.4890  47.6278 15.73204048  5317,6727.884,91.533,351.50199999999984,347.995,0.0
53163.0,STARLINK-4104,PAYLOAD,2022-08-16 14:00:01,15.73193731,0.0002832,53.2156,258.3903,14.5512,137.4305,0.00050031,0.00070173,0.0,0 STARLINK-4104,1 53163U 22083AH  22228.58334491  .00070173  00000-0  50031-3 0  9996,2 53163  53.2156 258.3903 0002832  14.5512 137.4305 15.73193731  1302,6727.913000000001,91.534,351.68300000000005,347.87300000000016,0.0
53163.0,STARLINK-4104,PAYLOAD,2022-08-16 22:00:00,15.73238577,0.0002641999999999,53.2158,256.7386,17.7951,223.1445,2.3829e-05,2.729e-05,0.0,0 STARLINK-4104,1 53163U 22083AH  22228.91667824  .00002729  00000-0  23829-4 0  9990,2 53163  53.2158 256.7386 0002642  17.7951 223.1445 15.73238577  5425,6727.785,91.531,351.42800000000005,347.87300000000016,0.0
53163.0,STARLINK-4104,PAYLOAD,2022-08-17 12:00:00,15.73223142,0.0002972,53.2157,253.8528,20.0909,286.5504,-0.00023065,-0.00032907,0.0,0 STARLINK-4104,1 53163U 22083AH  22229.50001157 -.00032907  00000-0 -23065-3 0  9991,2 53163  53.2157 253.8528 0002972  20.0909 286.5504 15.73223142  5517,6727.829000000002,91.532,351.694,347.695,0.0
53163.0,STARLINK-4104,PAYLOAD,2022-08-17 14:00:01,15.732212900000002,0.0002971,53.2154,253.4394,18.8863,39.9933,-0.00029559,-0.00041949,0.0,0 STARLINK-4104,1 53163U 22083AH  22229.58334491 -.00041949  00000-0 -29559-3 0  9999,2 53163  53.2154 253.4394 0002971  18.8863  39.9933 15.73221290  1305,6727.834,91.532,351.6980000000001,347.701,0.0
53163.0,STARLINK-4104,PAYLOAD,2022-08-17 16:00:00,15.73256694,0.0002878,53.2156,253.0259,19.4885,151.6208,-0.0011167999999999,-0.00154926,0.0,0 STARLINK-4104,1 53163U 22083AH  22229.66667824 -.00154926  00000-0 -11168-2 0  9993,2 53163  53.2156 253.0259 0002878  19.4885 151.6208 15.73256694  5543,6727.734,91.53,351.535,347.662,0.0
53163.0,STARLINK-4104,PAYLOAD,2022-08-18 06:00:02,15.7326672,0.0002723999999999,53.2155,250.1415,18.8006,218.0303,-0.00053276,-0.00074958,0.0,0 STARLINK-4104,1 53163U 22083AH  22230.25002315 -.00074958  00000-0 -53276-3 0  9991,2 53163  53.2155 250.1415 0002724  18.8006 218.0303 15.73266720  5637,6727.705,91.529,351.403,347.737,0.0
53163.0,STARLINK-4104,PAYLOAD,2022-08-18 14:00:01,15.73243481,0.0002846,53.2154,248.4927,12.7218,313.0112,-7.1045e-05,-0.00010602,0.0,0 STARLINK-4104,1 53163U 22083AH  22230.58334491 -.00010602  00000-0 -71045-4 0  9991,2 53163  53.2154 248.4927 0002846  12.7218 313.0112 15.73243481  1300,6727.771,91.531,351.551,347.721,0.0
53163.0,STARLINK-4104,PAYLOAD,2022-08-18 22:00:00,15.73171296,0.0002539,53.2156,246.841,12.438,42.2918,0.00063302,0.00089065,0.0,0 STARLINK-4104,1 53163U 22083AH  22230.91667824  .00089065  00000-0  63302-3 0  9990,2 53163  53.2156 246.8410 0002539  12.4380  42.2918 15.73171296  5737,6727.977,91.535,351.55,348.134,0.0
53163.0,STARLINK-4104,PAYLOAD,2022-08-19 04:00:01,15.73302902,0.0002665,53.2164,245.6022,13.9189,17.551,-0.0012205999999999,-0.00169309,0.0,0 STARLINK-4104,1 53163U 22083AH  22231.16668981 -.00169309  00000-0 -12206-2 0  9991,2 53163  53.2164 245.6022 0002665  13.9189  17.5510 15.73302902  5772,6727.602,91.527,351.26,347.6740000000001,0.0
53163.0,STARLINK-4104,PAYLOAD,2022-08-19 14:00:01,15.73164154,0.0002846,53.2146,243.544,11.6321,220.9604,2.4186e-05,2.769e-05,0.0,0 STARLINK-4104,1 53163U 22083AH  22231.58334491  .00002769  00000-0  24186-4 0  9999,2 53163  53.2146 243.5440 0002846  11.6321 220.9604 15.73164154  1301,6727.996999999999,91.535,351.777,347.9480000000001,0.0
